ONEWEB-0141             
1 47287U 20100AF  26063.79902585 -.00000383  00000+0 -11003-2 0  9995
2 47287  87.9000  11.3626 0001907  71.0965 289.0370 13.12442313250985
ONEWEB-0142             
1 47288U 20100AG  26064.24487922 -.00000068  00000+0 -22460-3 0  9990
2 47288  87.9000  11.2986 0002146  75.0511 285.0855 13.12442635251039
ONEWEB-0143             
1 47289U 20100AH  26064.25489139 -.00000311  00000+0 -90015-3 0  9996
2 47289  87.8998  11.2932 0001819  79.6907 280.4427 13.12441778251010
ONEWEB-0144             
1 47290U 20100AJ  26064.22608086  .00000081  00000+0  19058-3 0  9999
2 47290  87.8997  11.2691 0002203  85.3692 274.7688 13.12453980250939
ONEWEB-0145             
1 47291U 20100AK  26064.27353100 -.00000154  00000+0 -46335-3 0  9990
2 47291  87.8999  11.2977 0001911  80.6994 279.4351 13.12442907251136
ONEWEB-0146             
1 47292U 20100AL  26064.27012382 -.00000266  00000+0 -77366-3 0  9997
2 47292  87.8996  11.2836 0001503  80.4522 279.6776 13.12442743251041
ONEWEB-0147             
1 47293U 20100AM  26064.23626683  .00000270  00000+0  71550-3 0  9991
2 47293  87.9003  11.2695 0001897  87.5434 272.5912 13.12441554250931
ONEWEB-0115             
1 48042U 21025A   26064.19329703  .00000017  00000+0  12349-4 0  9990
2 48042  87.9045 340.9026 0001675  78.3868 281.7449 13.13469850239948
ONEWEB-0152             
1 48043U 21025B   26064.20684014  .00000391  00000+0  10363-2 0  9999
2 48043  87.9042 340.9013 0001606  79.6364 280.4946 13.13469759239903
ONEWEB-0153             
1 48044U 21025C   26064.18483382 -.00000197  00000+0 -57468-3 0  9996
2 48044  87.9042 340.9110 0001808  79.2889 280.8444 13.13470051239896
ONEWEB-0154             
1 48045U 21025D   26064.18144413 -.00000221  00000+0 -63955-3 0  9992
2 48045  87.9042 340.9094 0001721  82.0851 278.0474 13.13471124239853
ONEWEB-0116             
1 48046U 21025E   26064.22038383  .00000365  00000+0  96497-3 0  9990
2 48046  87.9051 340.8891 0001585  82.7107 277.4202 13.13469353240009
ONEWEB-0150             
1 48047U 21025F   26064.19668276  .00000107  00000+0  25782-3 0  9990
2 48047  87.9048 340.8911 0001756  71.7259 288.4061 13.13470224239894
ONEWEB-0107             
1 48048U 21025G   26064.19837510  .00000088  00000+0  20719-3 0  9993
2 48048  87.9047 340.8865 0002002  76.2282 283.9070 13.13469198239879
ONEWEB-0101             
1 48049U 21025H   26064.23731456 -.00000026  00000+0 -10720-3 0  9996
2 48049  87.9040 340.9046 0001841  79.7677 280.3660 13.13468921239858
ONEWEB-0113             
1 48050U 21025J   26064.22160835 -.00001451  00000+0 -39803-2 0  9999
2 48050  87.9050 340.8291 0001479  88.9696 271.1602 13.13958662239953
