[{"OBJECT_NAME":"ONEWEB-0141","OBJECT_ID":"2020-100AF","EPOCH":"2026-03-04T19:10:35.833440","MEAN_MOTION":13.12442313,"ECCENTRICITY":0.0001907,"INCLINATION":87.9,"RA_OF_ASC_NODE":11.3626,"ARG_OF_PERICENTER":71.0965,"MEAN_ANOMALY":289.037,"EPHEMERIS_TYPE":0,"CLASSIFICATION_TYPE":"U","NORAD_CAT_ID":47287,"ELEMENT_SET_NO":999,"REV_AT_EPOCH":25098,"BSTAR":-0.0011003432,"MEAN_MOTION_DOT":-3.83e-6,"MEAN_MOTION_DDOT":0},{"OBJECT_NAME":"ONEWEB-0142","OBJECT_ID":"2020-100AG","EPOCH":"2026-03-05T05:52:37.564608","MEAN_MOTION":13.12442635,"ECCENTRICITY":0.00021464,"INCLINATION":87.9,"RA_OF_ASC_NODE":11.2986,"ARG_OF_PERICENTER":75.0511,"MEAN_ANOMALY":285.0855,"EPHEMERIS_TYPE":0,"CLASSIFICATION_TYPE":"U","NORAD_CAT_ID":47288,"ELEMENT_SET_NO":999,"REV_AT_EPOCH":25103,"BSTAR":-0.00022459521,"MEAN_MOTION_DOT":-6.8e-7,"MEAN_MOTION_DDOT":0},{"OBJECT_NAME":"ONEWEB-0143","OBJECT_ID":"2020-100AH","EPOCH":"2026-03-05T06:07:02.616096","MEAN_MOTION":13.12441778,"ECCENTRICITY":0.00018193,"INCLINATION":87.8998,"RA_OF_ASC_NODE":11.2932,"ARG_OF_PERICENTER":79.6907,"MEAN_ANOMALY":280.4427,"EPHEMERIS_TYPE":0,"CLASSIFICATION_TYPE":"U","NORAD_CAT_ID":47289,"ELEMENT_SET_NO":999,"REV_AT_EPOCH":25101,"BSTAR":-0.00090015492,"MEAN_MOTION_DOT":-3.11e-6,"MEAN_MOTION_DDOT":0},{"OBJECT_NAME":"ONEWEB-0144","OBJECT_ID":"2020-100AJ","EPOCH":"2026-03-05T05:25:33.386304","MEAN_MOTION":13.1245398,"ECCENTRICITY":0.00022033,"INCLINATION":87.8997,"RA_OF_ASC_NODE":11.2691,"ARG_OF_PERICENTER":85.3692,"MEAN_ANOMALY":274.7688,"EPHEMERIS_TYPE":0,"CLASSIFICATION_TYPE":"U","NORAD_CAT_ID":47290,"ELEMENT_SET_NO":999,"REV_AT_EPOCH":25093,"BSTAR":0.00019057845,"MEAN_MOTION_DOT":8.1e-7,"MEAN_MOTION_DDOT":0},{"OBJECT_NAME":"ONEWEB-0145","OBJECT_ID":"2020-100AK","EPOCH":"2026-03-05T06:33:53.078400","MEAN_MOTION":13.12442907,"ECCENTRICITY":0.00019116,"INCLINATION":87.8999,"RA_OF_ASC_NODE":11.2977,"ARG_OF_PERICENTER":80.6994,"MEAN_ANOMALY":279.4351,"EPHEMERIS_TYPE":0,"CLASSIFICATION_TYPE":"U","NORAD_CAT_ID":47291,"ELEMENT_SET_NO":999,"REV_AT_EPOCH":25113,"BSTAR":-0.00046335314,"MEAN_MOTION_DOT":-1.54e-6,"MEAN_MOTION_DDOT":0},{"OBJECT_NAME":"ONEWEB-0146","OBJECT_ID":"2020-100AL","EPOCH":"2026-03-05T06:28:58.698048","MEAN_MOTION":13.12442743,"ECCENTRICITY":0.00015035,"INCLINATION":87.8996,"RA_OF_ASC_NODE":11.2836,"ARG_OF_PERICENTER":80.4522,"MEAN_ANOMALY":279.6776,"EPHEMERIS_TYPE":0,"CLASSIFICATION_TYPE":"U","NORAD_CAT_ID":47292,"ELEMENT_SET_NO":999,"REV_AT_EPOCH":25104,"BSTAR":-0.00077366085,"MEAN_MOTION_DOT":-2.66e-6,"MEAN_MOTION_DDOT":0},{"OBJECT_NAME":"ONEWEB-0147","OBJECT_ID":"2020-100AM","EPOCH":"2026-03-05T05:40:13.454112","MEAN_MOTION":13.12441554,"ECCENTRICITY":0.00018976,"INCLINATION":87.9003,"RA_OF_ASC_NODE":11.2695,"ARG_OF_PERICENTER":87.5434,"MEAN_ANOMALY":272.5912,"EPHEMERIS_TYPE":0,"CLASSIFICATION_TYPE":"U","NORAD_CAT_ID":47293,"ELEMENT_SET_NO":999,"REV_AT_EPOCH":25093,"BSTAR":0.00071550252,"MEAN_MOTION_DOT":2.7e-6,"MEAN_MOTION_DDOT":0},{"OBJECT_NAME":"ONEWEB-0115","OBJECT_ID":"2021-025A","EPOCH":"2026-03-05T04:38:20.863392","MEAN_MOTION":13.1346985,"ECCENTRICITY":0.0001675,"INCLINATION":87.9045,"RA_OF_ASC_NODE":340.9026,"ARG_OF_PERICENTER":78.3868,"MEAN_ANOMALY":281.7449,"EPHEMERIS_TYPE":0,"CLASSIFICATION_TYPE":"U","NORAD_CAT_ID":48042,"ELEMENT_SET_NO":999,"REV_AT_EPOCH":23994,"BSTAR":1.2349117e-5,"MEAN_MOTION_DOT":1.7e-7,"MEAN_MOTION_DDOT":0},{"OBJECT_NAME":"ONEWEB-0152","OBJECT_ID":"2021-025B","EPOCH":"2026-03-05T04:57:50.988096","MEAN_MOTION":13.13469759,"ECCENTRICITY":0.00016062,"INCLINATION":87.9042,"RA_OF_ASC_NODE":340.9013,"ARG_OF_PERICENTER":79.6364,"MEAN_ANOMALY":280.4946,"EPHEMERIS_TYPE":0,"CLASSIFICATION_TYPE":"U","NORAD_CAT_ID":48043,"ELEMENT_SET_NO":999,"REV_AT_EPOCH":23990,"BSTAR":0.0010363462,"MEAN_MOTION_DOT":3.91e-6,"MEAN_MOTION_DDOT":0},{"OBJECT_NAME":"ONEWEB-0153","OBJECT_ID":"2021-025C","EPOCH":"2026-03-05T04:26:09.642048","MEAN_MOTION":13.13470051,"ECCENTRICITY":0.0001808,"INCLINATION":87.9042,"RA_OF_ASC_NODE":340.911,"ARG_OF_PERICENTER":79.2889,"MEAN_ANOMALY":280.8444,"EPHEMERIS_TYPE":0,"CLASSIFICATION_TYPE":"U","NORAD_CAT_ID":48044,"ELEMENT_SET_NO":999,"REV_AT_EPOCH":23989,"BSTAR":-0.00057467604,"MEAN_MOTION_DOT":-1.97e-6,"MEAN_MOTION_DDOT":0},{"OBJECT_NAME":"ONEWEB-0154","OBJECT_ID":"2021-025D","EPOCH":"2026-03-05T04:21:16.772832","MEAN_MOTION":13.13471124,"ECCENTRICITY":0.00017216,"INCLINATION":87.9042,"RA_OF_ASC_NODE":340.9094,"ARG_OF_PERICENTER":82.0851,"MEAN_ANOMALY":278.0474,"EPHEMERIS_TYPE":0,"CLASSIFICATION_TYPE":"U","NORAD_CAT_ID":48045,"ELEMENT_SET_NO":999,"REV_AT_EPOCH":23985,"BSTAR":-0.00063955089,"MEAN_MOTION_DOT":-2.21e-6,"MEAN_MOTION_DDOT":0},{"OBJECT_NAME":"ONEWEB-0116","OBJECT_ID":"2021-025E","EPOCH":"2026-03-05T05:17:21.162912","MEAN_MOTION":13.13469353,"ECCENTRICITY":0.0001585,"INCLINATION":87.9051,"RA_OF_ASC_NODE":340.8891,"ARG_OF_PERICENTER":82.7107,"MEAN_ANOMALY":277.4202,"EPHEMERIS_TYPE":0,"CLASSIFICATION_TYPE":"U","NORAD_CAT_ID":48046,"ELEMENT_SET_NO":999,"REV_AT_EPOCH":24000,"BSTAR":0.00096497385,"MEAN_MOTION_DOT":3.65e-6,"MEAN_MOTION_DDOT":0},{"OBJECT_NAME":"ONEWEB-0150","OBJECT_ID":"2021-025F","EPOCH":"2026-03-05T04:43:13.390464","MEAN_MOTION":13.13470224,"ECCENTRICITY":0.00017561,"INCLINATION":87.9048,"RA_OF_ASC_NODE":340.8911,"ARG_OF_PERICENTER":71.7259,"MEAN_ANOMALY":288.4061,"EPHEMERIS_TYPE":0,"CLASSIFICATION_TYPE":"U","NORAD_CAT_ID":48047,"ELEMENT_SET_NO":999,"REV_AT_EPOCH":23989,"BSTAR":0.0002578168,"MEAN_MOTION_DOT":1.07e-6,"MEAN_MOTION_DDOT":0},{"OBJECT_NAME":"ONEWEB-0107","OBJECT_ID":"2021-025G","EPOCH":"2026-03-05T04:45:39.608640","MEAN_MOTION":13.13469198,"ECCENTRICITY":0.00020026,"INCLINATION":87.9047,"RA_OF_ASC_NODE":340.8865,"ARG_OF_PERICENTER":76.2282,"MEAN_ANOMALY":283.907,"EPHEMERIS_TYPE":0,"CLASSIFICATION_TYPE":"U","NORAD_CAT_ID":48048,"ELEMENT_SET_NO":999,"REV_AT_EPOCH":23987,"BSTAR":0.00020718609,"MEAN_MOTION_DOT":8.8e-7,"MEAN_MOTION_DDOT":0},{"OBJECT_NAME":"ONEWEB-0101","OBJECT_ID":"2021-025H","EPOCH":"2026-03-05T05:41:43.977984","MEAN_MOTION":13.13468921,"ECCENTRICITY":0.00018419,"INCLINATION":87.904,"RA_OF_ASC_NODE":340.9046,"ARG_OF_PERICENTER":79.7677,"MEAN_ANOMALY":280.366,"EPHEMERIS_TYPE":0,"CLASSIFICATION_TYPE":"U","NORAD_CAT_ID":48049,"ELEMENT_SET_NO":999,"REV_AT_EPOCH":23985,"BSTAR":-0.00010720353,"MEAN_MOTION_DOT":-2.6e-7,"MEAN_MOTION_DDOT":0},{"OBJECT_NAME":"ONEWEB-0113","OBJECT_ID":"2021-025J","EPOCH":"2026-03-05T05:19:06.961440","MEAN_MOTION":13.13958662,"ECCENTRICITY":0.00014793,"INCLINATION":87.905,"RA_OF_ASC_NODE":340.8291,"ARG_OF_PERICENTER":88.9696,"MEAN_ANOMALY":271.1602,"EPHEMERIS_TYPE":0,"CLASSIFICATION_TYPE":"U","NORAD_CAT_ID":48050,"ELEMENT_SET_NO":999,"REV_AT_EPOCH":23995,"BSTAR":-0.0039802586,"MEAN_MOTION_DOT":-1.451e-5,"MEAN_MOTION_DDOT":0}]
